COSMOS 2242             
1 22626U 93024A   26090.83347741  .00003377  00000+0  29338-3 0  9997
2 22626  82.5167 245.5296 0015245 227.5286 132.4649 14.96647649783701
SL-16 R/B               
1 22803U 93059B   26090.07473650 -.00000157  00000+0 -53685-4 0  9995
2 22803  70.9914 326.0327 0017296 185.3137 174.7806 14.17234538682561
ARIANE 40 R/B           
1 22830U 93061H   26090.41578713  .00000271  00000+0  11495-3 0  9999
2 22830  98.4876 158.8705 0010146 214.2956 145.7574 14.32872678697210
COSMOS 2278             
1 23087U 94023A   26090.52204009 -.00000113  00000+0 -34524-4 0  9995
2 23087  71.0510 129.4230 0009241 340.2097  19.8665 14.14374929647891
SL-16 R/B               
1 23088U 94023B   26090.55869700  .00000304  00000+0  18134-3 0  9992
2 23088  71.0025  24.9584 0005509 265.8842  94.1651 14.15017450649186
SL-16 R/B               
1 23343U 94074B   26090.52426188  .00000659  00000+0  94883-4 0  9997
2 23343  97.7076 120.4548 0007474 140.6216  26.3571 14.79433277690476
SL-16 R/B               
1 23405U 94077B   26090.88508019 -.00000143  00000+0 -48686-4 0  9992
2 23405  70.9828 305.7959 0001773 194.5976 165.5096 14.15568905619379
ARIANE 40+ R/B          
1 23561U 95021B   26090.48962284  .00000381  00000+0  13542-3 0  9993
2 23561  98.4459 161.6727 0007896  80.3952 290.4651 14.39788277622389
SL-16 R/B               
1 23705U 95058B   26090.53981265 -.00000181  00000+0 -68169-4 0  9995
2 23705  71.0197 134.3839 0010184  85.5031 274.7255 14.15498354570942
SL-16 R/B               
1 24298U 96051B   26090.55396252  .00000148  00000+0  10702-3 0  9995
2 24298  70.7583 128.9624 0013325 112.4783 247.7749 14.12422119524737
ORBVIEW 2 (SEASTAR)     
1 24883U 97037A   26090.72242619  .00000381  00000+0  14851-3 0  9994
2 24883  98.8605 255.6224 0002256  22.6431 337.4853 14.35510676511639
SL-16 R/B               
1 25400U 98043G   26090.76284508  .00000090  00000+0  56553-4 0  9998
2 25400  98.8292  44.2878 0009082 315.3646  44.6801 14.26055031442135
